ORBCOMM FM06            
1 25118U 97084G   26189.39475907  .00000885  00000+0  27712-3 0  9997
2 25118  45.0147 310.6151 0000986 210.1516 192.1856 14.47616773497464
ORBCOMM FM04            
1 25159U 98007C   26190.34146903  .00000477  00000+0  20869-3 0  9999
2 25159 107.9632 215.0175 0041866 286.8433  72.8118 14.35778345479770
ORBCOMM FM19            
1 25415U 98046C   26190.23526245  .00000681  00000+0  26175-3 0  9999
2 25415  44.9926 138.7541 0003522  25.1321 113.6537 14.39534177459950
ORBCOMM FM20            
1 25416U 98046D   26190.24327829  .00000441  00000+0  19088-3 0  9997
2 25416  44.9928 146.8827 0001914 328.5298  31.5435 14.38093995459969
ORBCOMM FM27            
1 25481U 98053G   26190.12346053  .00000436  00000+0  18514-3 0  9991
2 25481  45.0037 231.1611 0002428 270.1383  89.9187 14.39178668453395
ORBCOMM FM32            
1 25982U 99065C   26189.35349282  .00000489  00000+0  21018-3 0  9992
2 25982  45.0155  73.0491 0005034 157.9812 202.1253 14.37161684390139
ORBCOMM FM109           
1 40086U 14040A   26188.43895652  .00000319  00000+0  10364-3 0  9993
2 40086  47.0043 355.7372 0001770 299.6158  60.4551 14.58867123637300
ORBCOMM FM110           
1 41182U 15081D   26190.22459969  .00000335  00000+0  10694-3 0  9998
2 41182  47.0014 257.2427 0003297 196.7550 163.3228 14.58913742560849
ORBCOMM FM118           
1 41183U 15081E   26189.50563809  .00000211  00000+0  80900-4 0  9998
2 41183  47.0033 260.9782 0002551 153.0735 207.0284 14.58900482560844
ORBCOMM FM112           
1 41184U 15081F   26190.26310622  .00000489  00000+0  13947-3 0  9990
2 41184  46.9976 165.8528 0003997 303.9343  56.1162 14.58932538562179
ORBCOMM FM113           
1 41185U 15081G   26190.30896501  .00000236  00000+0  86114-4 0  9998
2 41185  46.9992 166.0233 0002481 300.1453  59.9187 14.58878238562165
ORBCOMM FM108           
1 41187U 15081J   26190.13410208  .00000426  00000+0  12630-3 0  9999
2 41187  47.0051  78.4302 0002927 300.2625  59.7971 14.58904401563280
ORBCOMM FM117           
1 41188U 15081K   26189.07250359  .00000414  00000+0  12376-3 0  9994
2 41188  47.0014  82.0783 0003434 302.2374  57.8178 14.58889920563175
ORBCOMM FM116           
1 41189U 15081L   26189.73754067  .00000129  00000+0  63411-4 0  9993
2 41189  47.0009 168.7225 0001330 212.2170 147.8635 14.58901693562089
